SL-8 R/B                
1 19257U 88053B   26085.42212713  .00000326  00000+0  11421-3 0  9993
2 19257  74.0453  81.6201 0021500 258.6970 215.2946 14.38927117979009
COSMOS 1975             
1 19573U 88093A   26085.48752833  .00005987  00000+0  21559-3 0  9997
2 19573  82.5167 100.8164 0013321 109.4902 250.7778 15.28289797 21974
SL-14 R/B               
1 19574U 88093B   26085.90447270  .00000596  00000+0  65736-4 0  9998
2 19574  82.5337  25.8858 0020276 345.6586  76.7154 14.85676659  3578
SL-16 R/B               
1 19650U 88102B   26085.50409875 -.00000221  00000+0 -87482-4 0  9998
2 19650  70.9975 116.1185 0015015 336.1915  23.8512 14.16154123929271
INTERCOSMOS 24          
1 20261U 89080A   26085.48316237  .00000513  00000+0  15186-3 0  9993
2 20261  82.6011  93.4649 1186810 253.8043  92.9489 12.59579558668913
SL-14 R/B               
1 20262U 89080C   26085.75985787  .00000366  00000+0  10187-3 0  9998
2 20262  82.5959 162.2326 1230876 145.7510 222.9585 12.50510065662286
DELTA 1 R/B             
1 20323U 89089B   26085.31290023  .00000316  00000+0  86452-4 0  9993
2 20323  97.0694 290.1060 0070618  70.5092 290.3717 14.50676211898142
ARIANE 40 R/B           
1 20443U 90005H   26085.14388303  .00000265  00000+0  97702-4 0  9999
2 20443  98.3049 145.3124 0010853 150.0463 210.1349 14.39880961895173
DELTA 2 R/B(1)          
1 20453U 90008B   26085.23805440  .00069454  00000+0  76494-3 0  9998
2 20453  35.6039  66.0740 0078698  53.1388 307.6533 15.58109959928717
COSMOS 2058             
1 20465U 90010A   26085.33202542  .00004513  00000+0  26507-3 0  9994
2 20465  82.4683  31.0282 0007438 279.3565  80.6824 15.11466302944751
SL-14 R/B               
1 20466U 90010B   26085.41358214  .00000500  00000+0  57658-4 0  9996
2 20466  82.4993 251.6746 0018480 242.8392 117.0939 14.83583630930965
SL-14 R/B               
1 20511U 90018B   26085.71750332  .00000440  00000+0  52147-4 0  9996
2 20511  82.5234 207.1767 0017088  40.1511 320.0962 14.82161327925105
HST                     
1 20580U 90037B   26085.84100414  .00007787  00000+0  25479-3 0  9995
2 20580  28.4722 282.9776 0001587 327.2776  32.7722 15.29740788775944
SL-16 R/B               
1 20625U 90046B   26085.87531129  .00000192  00000+0  12392-3 0  9992
2 20625  70.9954 261.8179 0016322 277.1661  82.7606 14.15014541850827
COSMOS 2084             
1 20663U 90055A   26085.52430630  .00002308  00000+0  17229-3 0  9996
2 20663  62.7892 278.1559 0014427 195.0903 164.9769 15.05739159938855
SL-6 R/B(2)             
1 20666U 90055D   26085.72952973  .00001823  00000+0  14607-3 0  9998
2 20666  62.7831 195.8996 0027588 350.9704   9.0896 15.03674812940758
SL-8 R/B                
1 20775U 90078B   26085.43877529  .00013001  00000+0  38492-3 0  9994
2 20775  82.9019 236.2387 0358855 317.5352  39.8600 14.89571696811791
