[{"OBJECT_NAME":"SL-8 R/B","OBJECT_ID":"1988-053B","EPOCH":"2026-03-26T10:07:51.784032","MEAN_MOTION":14.38927117,"ECCENTRICITY":0.00215,"INCLINATION":74.0453,"RA_OF_ASC_NODE":81.6201,"ARG_OF_PERICENTER":258.697,"MEAN_ANOMALY":215.2946,"EPHEMERIS_TYPE":0,"CLASSIFICATION_TYPE":"U","NORAD_CAT_ID":19257,"ELEMENT_SET_NO":999,"REV_AT_EPOCH":97900,"BSTAR":0.00011421,"MEAN_MOTION_DOT":3.26e-6,"MEAN_MOTION_DDOT":0},{"OBJECT_NAME":"COSMOS 1975","OBJECT_ID":"1988-093A","EPOCH":"2026-03-26T11:42:02.447712","MEAN_MOTION":15.28289797,"ECCENTRICITY":0.0013321,"INCLINATION":82.5167,"RA_OF_ASC_NODE":100.8164,"ARG_OF_PERICENTER":109.4902,"MEAN_ANOMALY":250.7778,"EPHEMERIS_TYPE":0,"CLASSIFICATION_TYPE":"U","NORAD_CAT_ID":19573,"ELEMENT_SET_NO":999,"REV_AT_EPOCH":2197,"BSTAR":0.00021559,"MEAN_MOTION_DOT":5.987e-5,"MEAN_MOTION_DDOT":0},{"OBJECT_NAME":"SL-14 R/B","OBJECT_ID":"1988-093B","EPOCH":"2026-03-26T21:42:26.441280","MEAN_MOTION":14.85676659,"ECCENTRICITY":0.0020276,"INCLINATION":82.5337,"RA_OF_ASC_NODE":25.8858,"ARG_OF_PERICENTER":345.6586,"MEAN_ANOMALY":76.7154,"EPHEMERIS_TYPE":0,"CLASSIFICATION_TYPE":"U","NORAD_CAT_ID":19574,"ELEMENT_SET_NO":999,"REV_AT_EPOCH":357,"BSTAR":6.5736e-5,"MEAN_MOTION_DOT":5.96e-6,"MEAN_MOTION_DDOT":0},{"OBJECT_NAME":"SL-16 R/B","OBJECT_ID":"1988-102B","EPOCH":"2026-03-26T12:05:54.132000","MEAN_MOTION":14.16154123,"ECCENTRICITY":0.0015015,"INCLINATION":70.9975,"RA_OF_ASC_NODE":116.1185,"ARG_OF_PERICENTER":336.1915,"MEAN_ANOMALY":23.8512,"EPHEMERIS_TYPE":0,"CLASSIFICATION_TYPE":"U","NORAD_CAT_ID":19650,"ELEMENT_SET_NO":999,"REV_AT_EPOCH":92927,"BSTAR":-8.7482e-5,"MEAN_MOTION_DOT":-2.21e-6,"MEAN_MOTION_DDOT":0},{"OBJECT_NAME":"INTERCOSMOS 24","OBJECT_ID":"1989-080A","EPOCH":"2026-03-26T11:35:45.228768","MEAN_MOTION":12.59579558,"ECCENTRICITY":0.118681,"INCLINATION":82.6011,"RA_OF_ASC_NODE":93.4649,"ARG_OF_PERICENTER":253.8043,"MEAN_ANOMALY":92.9489,"EPHEMERIS_TYPE":0,"CLASSIFICATION_TYPE":"U","NORAD_CAT_ID":20261,"ELEMENT_SET_NO":999,"REV_AT_EPOCH":66891,"BSTAR":0.00015186,"MEAN_MOTION_DOT":5.13e-6,"MEAN_MOTION_DDOT":0},{"OBJECT_NAME":"SL-14 R/B","OBJECT_ID":"1989-080C","EPOCH":"2026-03-26T18:14:11.719968","MEAN_MOTION":12.50510065,"ECCENTRICITY":0.1230876,"INCLINATION":82.5959,"RA_OF_ASC_NODE":162.2326,"ARG_OF_PERICENTER":145.751,"MEAN_ANOMALY":222.9585,"EPHEMERIS_TYPE":0,"CLASSIFICATION_TYPE":"U","NORAD_CAT_ID":20262,"ELEMENT_SET_NO":999,"REV_AT_EPOCH":66228,"BSTAR":0.00010187,"MEAN_MOTION_DOT":3.66e-6,"MEAN_MOTION_DDOT":0},{"OBJECT_NAME":"DELTA 1 R/B","OBJECT_ID":"1989-089B","EPOCH":"2026-03-26T07:30:34.579872","MEAN_MOTION":14.50676211,"ECCENTRICITY":0.0070618,"INCLINATION":97.0694,"RA_OF_ASC_NODE":290.106,"ARG_OF_PERICENTER":70.5092,"MEAN_ANOMALY":290.3717,"EPHEMERIS_TYPE":0,"CLASSIFICATION_TYPE":"U","NORAD_CAT_ID":20323,"ELEMENT_SET_NO":999,"REV_AT_EPOCH":89814,"BSTAR":8.6452e-5,"MEAN_MOTION_DOT":3.16e-6,"MEAN_MOTION_DDOT":0},{"OBJECT_NAME":"ARIANE 40 R/B","OBJECT_ID":"1990-005H","EPOCH":"2026-03-26T03:27:11.493792","MEAN_MOTION":14.39880961,"ECCENTRICITY":0.00108534,"INCLINATION":98.3049,"RA_OF_ASC_NODE":145.3124,"ARG_OF_PERICENTER":150.0463,"MEAN_ANOMALY":210.1349,"EPHEMERIS_TYPE":0,"CLASSIFICATION_TYPE":"U","NORAD_CAT_ID":20443,"ELEMENT_SET_NO":999,"REV_AT_EPOCH":89517,"BSTAR":9.7702013e-5,"MEAN_MOTION_DOT":2.65e-6,"MEAN_MOTION_DDOT":0},{"OBJECT_NAME":"DELTA 2 R/B(1)","OBJECT_ID":"1990-008B","EPOCH":"2026-03-26T05:42:47.900160","MEAN_MOTION":15.58109959,"ECCENTRICITY":0.0078698,"INCLINATION":35.6039,"RA_OF_ASC_NODE":66.074,"ARG_OF_PERICENTER":53.1388,"MEAN_ANOMALY":307.6533,"EPHEMERIS_TYPE":0,"CLASSIFICATION_TYPE":"U","NORAD_CAT_ID":20453,"ELEMENT_SET_NO":999,"REV_AT_EPOCH":92871,"BSTAR":0.00076494,"MEAN_MOTION_DOT":0.00069454,"MEAN_MOTION_DDOT":0},{"OBJECT_NAME":"COSMOS 2058","OBJECT_ID":"1990-010A","EPOCH":"2026-03-26T07:58:06.996288","MEAN_MOTION":15.11466302,"ECCENTRICITY":0.0007438,"INCLINATION":82.4683,"RA_OF_ASC_NODE":31.0282,"ARG_OF_PERICENTER":279.3565,"MEAN_ANOMALY":80.6824,"EPHEMERIS_TYPE":0,"CLASSIFICATION_TYPE":"U","NORAD_CAT_ID":20465,"ELEMENT_SET_NO":999,"REV_AT_EPOCH":94475,"BSTAR":0.00026507,"MEAN_MOTION_DOT":4.513e-5,"MEAN_MOTION_DDOT":0},{"OBJECT_NAME":"SL-14 R/B","OBJECT_ID":"1990-010B","EPOCH":"2026-03-26T09:55:33.496896","MEAN_MOTION":14.8358363,"ECCENTRICITY":0.001848,"INCLINATION":82.4993,"RA_OF_ASC_NODE":251.6746,"ARG_OF_PERICENTER":242.8392,"MEAN_ANOMALY":117.0939,"EPHEMERIS_TYPE":0,"CLASSIFICATION_TYPE":"U","NORAD_CAT_ID":20466,"ELEMENT_SET_NO":999,"REV_AT_EPOCH":93096,"BSTAR":5.7658e-5,"MEAN_MOTION_DOT":5.0e-6,"MEAN_MOTION_DDOT":0},{"OBJECT_NAME":"SL-14 R/B","OBJECT_ID":"1990-018B","EPOCH":"2026-03-26T17:13:12.286848","MEAN_MOTION":14.82161327,"ECCENTRICITY":0.0017088,"INCLINATION":82.5234,"RA_OF_ASC_NODE":207.1767,"ARG_OF_PERICENTER":40.1511,"MEAN_ANOMALY":320.0962,"EPHEMERIS_TYPE":0,"CLASSIFICATION_TYPE":"U","NORAD_CAT_ID":20511,"ELEMENT_SET_NO":999,"REV_AT_EPOCH":92510,"BSTAR":5.2147e-5,"MEAN_MOTION_DOT":4.4e-6,"MEAN_MOTION_DDOT":0},{"OBJECT_NAME":"HST","OBJECT_ID":"1990-037B","EPOCH":"2026-03-26T20:11:02.757696","MEAN_MOTION":15.29740788,"ECCENTRICITY":0.0001587,"INCLINATION":28.4722,"RA_OF_ASC_NODE":282.9776,"ARG_OF_PERICENTER":327.2776,"MEAN_ANOMALY":32.7722,"EPHEMERIS_TYPE":0,"CLASSIFICATION_TYPE":"U","NORAD_CAT_ID":20580,"ELEMENT_SET_NO":999,"REV_AT_EPOCH":77594,"BSTAR":0.00025479,"MEAN_MOTION_DOT":7.787e-5,"MEAN_MOTION_DDOT":0},{"OBJECT_NAME":"SL-16 R/B","OBJECT_ID":"1990-046B","EPOCH":"2026-03-26T21:00:26.895456","MEAN_MOTION":14.15014541,"ECCENTRICITY":0.0016322,"INCLINATION":70.9954,"RA_OF_ASC_NODE":261.8179,"ARG_OF_PERICENTER":277.1661,"MEAN_ANOMALY":82.7606,"EPHEMERIS_TYPE":0,"CLASSIFICATION_TYPE":"U","NORAD_CAT_ID":20625,"ELEMENT_SET_NO":999,"REV_AT_EPOCH":85082,"BSTAR":0.00012392,"MEAN_MOTION_DOT":1.92e-6,"MEAN_MOTION_DDOT":0},{"OBJECT_NAME":"COSMOS 2084","OBJECT_ID":"1990-055A","EPOCH":"2026-03-26T12:35:00.064320","MEAN_MOTION":15.05739159,"ECCENTRICITY":0.0014427,"INCLINATION":62.7892,"RA_OF_ASC_NODE":278.1559,"ARG_OF_PERICENTER":195.0903,"MEAN_ANOMALY":164.9769,"EPHEMERIS_TYPE":0,"CLASSIFICATION_TYPE":"U","NORAD_CAT_ID":20663,"ELEMENT_SET_NO":999,"REV_AT_EPOCH":93885,"BSTAR":0.00017229,"MEAN_MOTION_DOT":2.308e-5,"MEAN_MOTION_DDOT":0},{"OBJECT_NAME":"SL-6 R/B(2)","OBJECT_ID":"1990-055D","EPOCH":"2026-03-26T17:30:31.368672","MEAN_MOTION":15.03674812,"ECCENTRICITY":0.0027588,"INCLINATION":62.7831,"RA_OF_ASC_NODE":195.8996,"ARG_OF_PERICENTER":350.9704,"MEAN_ANOMALY":9.0896,"EPHEMERIS_TYPE":0,"CLASSIFICATION_TYPE":"U","NORAD_CAT_ID":20666,"ELEMENT_SET_NO":999,"REV_AT_EPOCH":94075,"BSTAR":0.00014607,"MEAN_MOTION_DOT":1.823e-5,"MEAN_MOTION_DDOT":0},{"OBJECT_NAME":"SL-8 R/B","OBJECT_ID":"1990-078B","EPOCH":"2026-03-26T10:31:50.185056","MEAN_MOTION":14.89571696,"ECCENTRICITY":0.0358855,"INCLINATION":82.9019,"RA_OF_ASC_NODE":236.2387,"ARG_OF_PERICENTER":317.5352,"MEAN_ANOMALY":39.86,"EPHEMERIS_TYPE":0,"CLASSIFICATION_TYPE":"U","NORAD_CAT_ID":20775,"ELEMENT_SET_NO":999,"REV_AT_EPOCH":81179,"BSTAR":0.00038492,"MEAN_MOTION_DOT":0.00013001,"MEAN_MOTION_DDOT":0}]
